[{"OBJECT_NAME":"STARLINK-30291","OBJECT_ID":"2023-141S","EPOCH":"2026-03-09T20:28:29.974080","MEAN_MOTION":15.30188197,"ECCENTRICITY":0.00011986,"INCLINATION":53.1592,"RA_OF_ASC_NODE":283.3202,"ARG_OF_PERICENTER":74.2697,"MEAN_ANOMALY":285.8436,"EPHEMERIS_TYPE":0,"CLASSIFICATION_TYPE":"U","NORAD_CAT_ID":57856,"ELEMENT_SET_NO":999,"REV_AT_EPOCH":14035,"BSTAR":1.7704091e-5,"MEAN_MOTION_DOT":1.65e-6,"MEAN_MOTION_DDOT":0},{"OBJECT_NAME":"CZ-4B DEB","OBJECT_ID":"2008-053J","EPOCH":"2026-03-09T11:59:22.469568","MEAN_MOTION":15.1637526,"ECCENTRICITY":0.00601661,"INCLINATION":97.7872,"RA_OF_ASC_NODE":170.5072,"ARG_OF_PERICENTER":304.792,"MEAN_ANOMALY":54.7659,"EPHEMERIS_TYPE":0,"CLASSIFICATION_TYPE":"U","NORAD_CAT_ID":35573,"ELEMENT_SET_NO":999,"REV_AT_EPOCH":91868,"BSTAR":0.0017688276,"MEAN_MOTION_DOT":0.00036031,"MEAN_MOTION_DDOT":0}]
